ONEWEB-0389             
1 50469U 21132A   25019.79426519 -.00000101  00000+0 -29347-3 0  9994
2 50469  87.9095 108.1562 0001811  92.0317 268.1022 13.17646371151760
ONEWEB-0390             
1 50470U 21132B   25019.26440831  .00000073  00000+0  15551-3 0  9999
2 50470  87.9095 108.2688 0002078 103.9228 256.2134 13.17648330150400
ONEWEB-0391             
1 50471U 21132C   25019.79763871 -.00000424  00000+0 -11258-2 0  9991
2 50471  87.9102 108.1633 0002226  80.4851 279.6532 13.17648745151766
ONEWEB-0392             
1 50472U 21132D   25019.60021434  .00000089  00000+0  19633-3 0  9995
2 50472  87.9086 108.1722 0001844  90.2383 269.8960 13.17648721150489
ONEWEB-0393             
1 50473U 21132E   25019.26963061  .00000048  00000+0  89476-4 0  9997
2 50473  87.9099 108.2362 0001794  97.6229 262.5106 13.17652476150438
ONEWEB-0394             
1 50474U 21132F   25019.56571298  .00000081  00000+0  17177-3 0  9993
2 50474  87.9074  77.6224 0001808  96.4723 263.6615 13.18684871153907
ONEWEB-0395             
1 50475U 21132G   25019.30828542 -.00000447  00000+0 -12965-2 0  9990
2 50475  87.8908 123.5124 0001907  97.9525 262.1820 13.11416648148363
ONEWEB-0396             
1 50476U 21132H   25019.55937583  .00000036  00000+0  57394-4 0  9993
2 50476  87.9080  77.6309 0001778  95.3670 264.7665 13.18684071153948
ONEWEB-0397             
1 50477U 21132J   25019.57361700  .00000070  00000+0  14583-3 0  9998
2 50477  87.9080  77.6296 0001640  98.3656 261.7662 13.18685176153928
ONEWEB-0398             
1 50478U 21132K   25019.35238362  .00000626  00000+0  17304-2 0  9992
2 50478  87.8902 123.4746 0002162 106.4279 253.7087 13.11416474148262
ONEWEB-0399             
1 50479U 21132L   25019.33881446  .00000431  00000+0  11790-2 0  9995
2 50479  87.8904 123.4977 0001363  97.5317 262.5965 13.11418109148255
ONEWEB-0400             
1 50480U 21132M   25019.70480896 -.00000049  00000+0 -15826-3 0  9994
2 50480  87.9077  77.5988 0002088 101.8809 258.2558 13.18683693155213
ONEWEB-0401             
1 50481U 21132N   25019.67161082 -.00000012  00000+0 -62151-4 0  9998
2 50481  87.9073  77.5998 0001591 102.3781 257.7530 13.18682882155217
ONEWEB-0402             
1 50482U 21132P   25019.71270929 -.00000132  00000+0 -36868-3 0  9993
2 50482  87.9073  77.5890 0001228 108.3980 251.7285 13.18683812155241
ONEWEB-0403             
1 50483U 21132Q   25019.66055339  .00000037  00000+0  61361-4 0  9993
2 50483  87.9076  77.6113 0001881  96.2472 263.8875 13.18684015155199
ONEWEB-0404             
1 50484U 21132R   25019.32013663 -.00000299  00000+0 -87969-3 0  9994
2 50484  87.8915 123.4906 0001677  92.5430 267.5890 13.11415044148341
ONEWEB-0405             
1 50485U 21132S   25019.67635738  .00000006  00000+0 -17672-4 0  9996
2 50485  87.9076  77.5982 0001478  99.2880 260.8419 13.18683550155602
ONEWEB-0406             
1 50486U 21132T   25019.66529529 -.00000006  00000+0 -47382-4 0  9998
2 50486  87.9078  77.6167 0002348  89.7834 270.3567 13.18683355155233
ONEWEB-0407             
1 50487U 21132U   25019.65896760  .00000011  00000+0 -61108-5 0  9990
2 50487  87.9074  77.6098 0001666  98.3262 261.8059 13.18683363155179
ONEWEB-0409             
1 50488U 21132V   25019.77623685 -.00000499  00000+0 -14446-2 0  9999
2 50488  87.8905 123.3777 0001890  98.2514 261.8829 13.11416486149578
ONEWEB-0412             
1 50489U 21132W   25019.57202127  .00000070  00000+0  14563-3 0  9996
2 50489  87.9081  77.6372 0001415 104.0854 256.0436 13.18683649153965
ONEWEB-0413             
1 50490U 21132X   25019.65263968  .00000025  00000+0  30265-4 0  9995
2 50490  87.9079  77.6331 0001537 107.4349 252.6951 13.18683376155200
ONEWEB-0414             
1 50491U 21132Y   25019.71429257 -.00000017  00000+0 -77045-4 0  9998
2 50491  87.9074  77.5904 0001573  96.5108 263.6203 13.18683568155241
ONEWEB-0417             
1 50492U 21132Z   25019.57045789  .00000072  00000+0  15053-3 0  9996
2 50492  87.9082  77.6374 0001934  93.9461 266.1892 13.18684956153913
ONEWEB-0418             
1 50493U 21132AA  25019.65567087  .00000047  00000+0  86672-4 0  9994
2 50493  87.9077  77.6152 0002018  88.6172 271.5191 13.18687124155268
ONEWEB-0419             
1 50494U 21132AB  25019.67318876 -.00000322  00000+0 -84917-3 0  9994
2 50494  87.9074  77.6213 0002178  97.8227 262.3152 13.18685305155190
ONEWEB-0420             
1 50495U 21132AC  25019.71587917 -.00000004  00000+0 -42474-4 0  9994
2 50495  87.9074  77.6211 0001762 109.6297 250.5025 13.18684036155206
ONEWEB-0421             
1 50496U 21132AD  25019.70956108  .00000034  00000+0  53770-4 0  9998
2 50496  87.9081  77.6050 0001491  97.8831 262.2470 13.18684510155242
ONEWEB-0424             
1 50497U 21132AE  25019.66844625 -.00000111  00000+0 -31430-3 0  9990
2 50497  87.9076  77.6091 0002353 100.0492 260.0906 13.18686672155241
ONEWEB-0426             
1 50498U 21132AF  25019.17525719  .00003771  00000+0  95279-2 0  9990
2 50498  87.9096  77.7200 0002341  83.8012 276.3386 13.18684044153847
ONEWEB-0427             
1 50499U 21132AG  25019.66686517 -.00000277  00000+0 -73491-3 0  9992
2 50499  87.9073  77.5983 0001958  93.4945 266.6411 13.18685029155234
ONEWEB-0429             
1 50500U 21132AH  25019.65422807  .00000031  00000+0  45852-4 0  9991
2 50500  87.9081  77.6200 0001806 105.8326 254.3005 13.18683463155190
ONEWEB-0430             
1 50501U 21132AJ  25019.56728086  .00000041  00000+0  71466-4 0  9991
2 50501  87.9079  77.6347 0002166 106.4031 253.7339 13.18683787153932
ONEWEB-0432             
1 50502U 21132AK  25019.67477764 -.00000021  00000+0 -85067-4 0  9990
2 50502  87.9075  77.6038 0002740  87.4229 272.7217 13.18683252155206
ONEWEB-0440             
1 50503U 21132AL  25019.66213752 -.00000020  00000+0 -82759-4 0  9999
2 50503  87.9080  77.6015 0001425 105.3048 254.8242 13.18684577155183
ONEWEB-0450             
1 50504U 21132AM  25019.65593718 -.00000238  00000+0 -63767-3 0  9990
2 50504  87.9078  77.6312 0001947 111.7567 248.3772 13.18685029155210
ONEWEB-0410             
1 51622U 22012A   25019.28127127  .00000110  00000+0  25001-3 0  9992
2 51622  87.9090 108.2327 0002053  61.6089 298.5250 13.17647201146020
ONEWEB-0411             
1 51623U 22012B   25019.81422858 -.00000644  00000+0 -18801-2 0  9994
2 51623  87.8921 138.5476 0002231 113.3194 246.8168 13.10371422143331
ONEWEB-0415             
1 51624U 22012C   25019.81092134 -.00000628  00000+0 -18349-2 0  9994
2 51624  87.8915 138.5604 0001933 109.6541 250.4795 13.10372572143334
ONEWEB-0416             
1 51625U 22012D   25019.82253727 -.00000628  00000+0 -18350-2 0  9995
2 51625  87.8923 138.5657 0001627 105.8690 254.2616 13.10374790143388
ONEWEB-0422             
1 51626U 22012E   25019.29139874  .00000116  00000+0  26657-3 0  9993
2 51626  87.9093 108.2352 0001657 131.6654 228.4619 13.17647446146134
ONEWEB-0423             
1 51627U 22012F   25019.28465103  .00000058  00000+0  11600-3 0  9997
2 51627  87.9094 108.2407 0001637 105.5458 254.5854 13.17647540146021
ONEWEB-0425             
1 51628U 22012G   25019.83249835  .00000068  00000+0  15815-3 0  9994
2 51628  87.8920 138.5397 0001368  94.0165 266.1119 13.10377786143385
ONEWEB-0428             
1 51629U 22012H   25019.81257319 -.00000614  00000+0 -17955-2 0  9994
2 51629  87.8919 138.5625 0001688 115.2126 244.9176 13.10371712143331
ONEWEB-0431             
1 51630U 22012J   25019.32443450  .00000540  00000+0  15117-2 0  9999
2 51630  87.8909 138.6421 0002102 120.8984 239.2350 13.10370867142041
ONEWEB-0434             
1 51631U 22012K   25019.37769039  .00000460  00000+0  12825-2 0  9993
2 51631  87.8922 138.6608 0001267  81.2164 278.9107 13.10376404142037
ONEWEB-0435             
1 51632U 22012L   25019.84413889  .00000504  00000+0  14089-2 0  9998
2 51632  87.8922 138.5605 0001493 122.8598 237.2673 13.10374526143364
ONEWEB-0436             
1 51633U 22012M   25019.27621130  .00000080  00000+0  17340-3 0  9999
2 51633  87.9091 108.2375 0001845 114.4318 245.7006 13.17649392146000
ONEWEB-0438             
1 51634U 22012N   25019.82751134 -.00000537  00000+0 -15741-2 0  9990
2 51634  87.8923 138.5644 0001495  99.7342 260.3954 13.10375995143406
ONEWEB-0439             
1 51635U 22012P   25019.83084610 -.00000018  00000+0 -88867-4 0  9995
2 51635  87.8924 138.5504 0001541 107.6034 252.5261 13.10376836143377
ONEWEB-0442             
1 51636U 22012Q   25019.26862749  .00000043  00000+0  77033-4 0  9999
2 51636  87.9097 108.2815 0001991  85.8506 274.2853 13.17648613145999
ONEWEB-0443             
1 51637U 22012R   25019.28802855  .00000110  00000+0  24970-3 0  9990
2 51637  87.9095 108.2893 0001461  98.9147 261.2150 13.17647424146044
ONEWEB-0444             
1 51638U 22012S   25019.36273194 -.00000334  00000+0 -99222-3 0  9990
2 51638  87.8918 138.6538 0001449 111.2538 248.8744 13.10376773142045
ONEWEB-0445             
1 51639U 22012T   25019.38433838  .00000693  00000+0  19497-2 0  9997
2 51639  87.8912 138.6114 0001725 101.1159 259.0162 13.10374693142052
ONEWEB-0446             
1 51640U 22012U   25019.36107517 -.00000377  00000+0 -11153-2 0  9991
2 51640  87.8922 138.6603 0001852 103.4865 256.6469 13.10374550142031
ONEWEB-0448             
1 51641U 22012V   25019.82418970 -.00000330  00000+0 -98284-3 0  9991
2 51641  87.8923 138.5688 0001496 106.2386 253.8906 13.10373739143357
ONEWEB-0449             
1 51642U 22012W   25019.82918051 -.00000081  00000+0 -26701-3 0  9995
2 51642  87.8916 138.5508 0001488  96.0481 264.0816 13.10377308143376
ONEWEB-0451             
1 51643U 22012X   25019.27284092  .00000037  00000+0  63396-4 0  9997
2 51643  87.9089 108.2313 0001701  97.0735 263.0590 13.17647565145987
ONEWEB-0452             
1 51644U 22012Y   25019.27115319  .00000075  00000+0  15919-3 0  9992
2 51644  87.9095 108.2847 0001474  97.0247 263.1052 13.17647292145994
